<!DOCTYPE html>
<html lang="en">
<head>
    <meta charset="UTF-8">
    <meta name="viewport" content="width=device-width, initial-scale=1.0">
    <title>Document</title>
</head>
<body> 
   <h2>METAR CYRL 120200Z 32009KT 15SM FEW210 FEW240 03/M15 A3015 RMK CI1CS1 CS TR LAST STFD OBS/NEXT 120900 UTC SLP232=</h2>
   <script>src="index.js"</script>
</body>
</html>